{
  "type": "FeatureCollection",
  "features": [
    {
      "type": "Feature",
      "properties": {
        "norad_id": 43057,
        "name": "GSAT0217 (GALILEO 21)",
        "group": "gnss",
        "lat": 11.222425663994438,
        "lon": -125.71140664089195,
        "alt_km": 23213.498396177634,
        "timestamp": "2025-12-24T03:53:29.891061+00:00",
        "meta_object_name": "GSAT0217 (GALILEO 21)",
        "meta_object_id": "2017-079C",
        "meta_epoch": "2025-12-21T04:57:56.651616",
        "meta_mean_motion": 1.70474014,
        "meta_eccentricity": 0.00027256,
        "meta_inclination": 55.1257,
        "meta_ra_of_asc_node": 226.4024,
        "meta_arg_of_pericenter": 351.227,
        "meta_mean_anomaly": 8.8769,
        "meta_ephemeris_type": 0,
        "meta_classification_type": "U",
        "meta_norad_cat_id": 43057,
        "meta_element_set_no": 999,
        "meta_rev_at_epoch": 4995,
        "meta_bstar": 0,
        "meta_mean_motion_dot": 7.3e-07,
        "meta_mean_motion_ddot": 0,
        "tle_line1": "1 43057U 17079C   25355.20690569  .00000073  00000+0  00000+0 0  9998",
        "tle_line2": "2 43057  55.1257 226.4024 0002725 351.2270   8.8769  1.70474014 49955"
      },
      "geometry": {
        "type": "Point",
        "coordinates": [
          -125.71140664089195,
          11.222425663994438
        ]
      }
    },
    {
      "type": "Feature",
      "properties": {
        "norad_id": 43058,
        "name": "GSAT0218 (GALILEO 22)",
        "group": "gnss",
        "lat": -44.472946582378206,
        "lon": 89.53270476837127,
        "alt_km": 23225.71057676908,
        "timestamp": "2025-12-24T03:53:29.891075+00:00",
        "meta_object_name": "GSAT0218 (GALILEO 22)",
        "meta_object_id": "2017-079D",
        "meta_epoch": "2025-12-22T00:19:29.615808",
        "meta_mean_motion": 1.70473914,
        "meta_eccentricity": 0.00024164,
        "meta_inclination": 55.1256,
        "meta_ra_of_asc_node": 226.3779,
        "meta_arg_of_pericenter": 315.4078,
        "meta_mean_anomaly": 44.6792,
        "meta_ephemeris_type": 0,
        "meta_classification_type": "U",
        "meta_norad_cat_id": 43058,
        "meta_element_set_no": 999,
        "meta_rev_at_epoch": 4999,
        "meta_bstar": 0,
        "meta_mean_motion_dot": 7.3e-07,
        "meta_mean_motion_ddot": 0,
        "tle_line1": "1 43058U 17079D   25356.01353722  .00000073  00000+0  00000+0 0  9996",
        "tle_line2": "2 43058  55.1256 226.3779 0002416 315.4078  44.6792  1.70473914 49992"
      },
      "geometry": {
        "type": "Point",
        "coordinates": [
          89.53270476837127,
          -44.472946582378206
        ]
      }
    },
    {
      "type": "Feature",
      "properties": {
        "norad_id": 43107,
        "name": "BEIDOU-3 M7 (C27)",
        "group": "gnss",
        "lat": -54.19808517232758,
        "lon": -150.10212694529764,
        "alt_km": 21541.541123423718,
        "timestamp": "2025-12-24T03:53:29.891086+00:00",
        "meta_object_name": "BEIDOU-3 M7 (C27)",
        "meta_object_id": "2018-003A",
        "meta_epoch": "2025-12-22T03:44:43.463904",
        "meta_mean_motion": 1.86232634,
        "meta_eccentricity": 0.00029638,
        "meta_inclination": 54.4883,
        "meta_ra_of_asc_node": 308.4878,
        "meta_arg_of_pericenter": 66.6968,
        "meta_mean_anomaly": 293.333,
        "meta_ephemeris_type": 0,
        "meta_classification_type": "U",
        "meta_norad_cat_id": 43107,
        "meta_element_set_no": 999,
        "meta_rev_at_epoch": 5405,
        "meta_bstar": 0,
        "meta_mean_motion_dot": -5.9e-07,
        "meta_mean_motion_ddot": 0,
        "tle_line1": "1 43107U 18003A   25356.15605861 -.00000059  00000+0  00000+0 0  9993",
        "tle_line2": "2 43107  54.4883 308.4878 0002963  66.6968 293.3330  1.86232634 54050"
      },
      "geometry": {
        "type": "Point",
        "coordinates": [
          -150.10212694529764,
          -54.19808517232758
        ]
      }
    },
    {
      "type": "Feature",
      "properties": {
        "norad_id": 43108,
        "name": "BEIDOU-3 M8 (C28)",
        "group": "gnss",
        "lat": -43.745631093946024,
        "lon": -94.69369016195304,
        "alt_km": 21521.29632783827,
        "timestamp": "2025-12-24T03:53:29.891097+00:00",
        "meta_object_name": "BEIDOU-3 M8 (C28)",
        "meta_object_id": "2018-003B",
        "meta_epoch": "2025-12-23T04:11:55.355136",
        "meta_mean_motion": 1.86231118,
        "meta_eccentricity": 0.00045869,
        "meta_inclination": 54.4802,
        "meta_ra_of_asc_node": 308.4348,
        "meta_arg_of_pericenter": 278.9101,
        "meta_mean_anomaly": 81.0404,
        "meta_ephemeris_type": 0,
        "meta_classification_type": "U",
        "meta_norad_cat_id": 43108,
        "meta_element_set_no": 999,
        "meta_rev_at_epoch": 5408,
        "meta_bstar": 0,
        "meta_mean_motion_dot": -5.5e-07,
        "meta_mean_motion_ddot": 0,
        "tle_line1": "1 43108U 18003B   25357.17494624 -.00000055  00000+0  00000+0 0  9996",
        "tle_line2": "2 43108  54.4802 308.4348 0004586 278.9101  81.0404  1.86231118 54087"
      },
      "geometry": {
        "type": "Point",
        "coordinates": [
          -94.69369016195304,
          -43.745631093946024
        ]
      }
    },
    {
      "type": "Feature",
      "properties": {
        "norad_id": 43207,
        "name": "BEIDOU-3 M4 (C22)",
        "group": "gnss",
        "lat": 4.6029134925645545,
        "lon": 71.99845851058937,
        "alt_km": 21516.13056080296,
        "timestamp": "2025-12-24T03:53:29.891108+00:00",
        "meta_object_name": "BEIDOU-3 M4 (C22)",
        "meta_object_id": "2018-018A",
        "meta_epoch": "2025-12-23T14:48:25.996320",
        "meta_mean_motion": 1.86231206,
        "meta_eccentricity": 0.0004161,
        "meta_inclination": 56.4945,
        "meta_ra_of_asc_node": 68.9448,
        "meta_arg_of_pericenter": 3.5159,
        "meta_mean_anomaly": 356.5407,
        "meta_ephemeris_type": 0,
        "meta_classification_type": "U",
        "meta_norad_cat_id": 43207,
        "meta_element_set_no": 999,
        "meta_rev_at_epoch": 5347,
        "meta_bstar": 0,
        "meta_mean_motion_dot": -2.4e-07,
        "meta_mean_motion_ddot": 0,
        "tle_line1": "1 43207U 18018A   25357.61696755 -.00000024  00000+0  00000+0 0  9996",
        "tle_line2": "2 43207  56.4945  68.9448 0004161   3.5159 356.5407  1.86231206 53473"
      },
      "geometry": {
        "type": "Point",
        "coordinates": [
          71.99845851058937,
          4.6029134925645545
        ]
      }
    },
    {
      "type": "Feature",
      "properties": {
        "norad_id": 43208,
        "name": "BEIDOU-3 M3 (C21)",
        "group": "gnss",
        "lat": -31.744304422168405,
        "lon": 44.78763732890969,
        "alt_km": 21512.55093401659,
        "timestamp": "2025-12-24T03:53:29.891122+00:00",
        "meta_object_name": "BEIDOU-3 M3 (C21)",
        "meta_object_id": "2018-018B",
        "meta_epoch": "2025-12-22T14:37:45.965856",
        "meta_mean_motion": 1.86231405,
        "meta_eccentricity": 0.00070517,
        "meta_inclination": 56.4931,
        "meta_ra_of_asc_node": 68.9821,
        "meta_arg_of_pericenter": 313.7983,
        "meta_mean_anomaly": 46.1946,
        "meta_ephemeris_type": 0,
        "meta_classification_type": "U",
        "meta_norad_cat_id": 43208,
        "meta_element_set_no": 999,
        "meta_rev_at_epoch": 5345,
        "meta_bstar": 0,
        "meta_mean_motion_dot": -2.7e-07,
        "meta_mean_motion_ddot": 0,
        "tle_line1": "1 43208U 18018B   25356.60955979 -.00000027  00000+0  00000+0 0  9994",
        "tle_line2": "2 43208  56.4931  68.9821 0007051 313.7983  46.1946  1.86231405 53455"
      },
      "geometry": {
        "type": "Point",
        "coordinates": [
          44.78763732890969,
          -31.744304422168405
        ]
      }
    },
    {
      "type": "Feature",
      "properties": {
        "norad_id": 43245,
        "name": "BEIDOU-3 M9 (C29)",
        "group": "gnss",
        "lat": 3.299293319747442,
        "lon": 123.68354581576604,
        "alt_km": 21529.938014765605,
        "timestamp": "2025-12-24T03:53:29.891133+00:00",
        "meta_object_name": "BEIDOU-3 M9 (C29)",
        "meta_object_id": "2018-029A",
        "meta_epoch": "2025-12-21T18:02:44.382048",
        "meta_mean_motion": 1.8622836,
        "meta_eccentricity": 0.00015407,
        "meta_inclination": 54.3576,
        "meta_ra_of_asc_node": 306.1541,
        "meta_arg_of_pericenter": 290.4225,
        "meta_mean_anomaly": 69.56,
        "meta_ephemeris_type": 0,
        "meta_classification_type": "U",
        "meta_norad_cat_id": 43245,
        "meta_element_set_no": 999,
        "meta_rev_at_epoch": 5259,
        "meta_bstar": 0,
        "meta_mean_motion_dot": -5.9e-07,
        "meta_mean_motion_ddot": 0,
        "tle_line1": "1 43245U 18029A   25355.75190257 -.00000059  00000+0  00000+0 0  9997",
        "tle_line2": "2 43245  54.3576 306.1541 0001540 290.4225  69.5600  1.86228360 52597"
      },
      "geometry": {
        "type": "Point",
        "coordinates": [
          123.68354581576604,
          3.299293319747442
        ]
      }
    }
  ]
}